$$SOE
2461288.500000000, A.D. 2026-Sep-05 00:00:00.0000, 1.989245617872302E+08, 1.820371233828335E+08, 2.011055549536854E+07,
2461295.500000000, A.D. 2026-Sep-12 00:00:00.0000, 1.882348640969492E+08, 1.926332061317300E+08, 2.107286017459180E+07,
2461302.500000000, A.D. 2026-Sep-19 00:00:00.0000, 1.770818788090176E+08, 2.027551701912017E+08, 2.198329897861105E+07,
2461309.500000000, A.D. 2026-Sep-26 00:00:00.0000, 1.654927464752398E+08, 2.123777716904763E+08, 2.283959511641757E+07,
2461316.500000000, A.D. 2026-Oct-03 00:00:00.0000, 1.534965221231295E+08, 2.214779924182154E+08, 2.363971280963181E+07,
2461323.500000000, A.D. 2026-Oct-10 00:00:00.0000, 1.411239254287213E+08, 2.300352228606136E+08, 2.438187329816048E+07,
2461330.500000000, A.D. 2026-Oct-17 00:00:00.0000, 1.284070693140489E+08, 2.380314088639666E+08, 2.506456700161491E+07,
2461337.500000000, A.D. 2026-Oct-24 00:00:00.0000, 1.153791734047423E+08, 2.454511592148922E+08, 2.568656162410109E+07,
2461344.500000000, A.D. 2026-Oct-31 00:00:00.0000, 1.020742691797009E+08, 2.522818126988503E+08, 2.624690611462688E+07,
2461351.500000000, A.D. 2026-Nov-07 00:00:00.0000, 8.852690390847643E+07, 2.585134646651944E+08, 2.674493051868048E+07,
2461358.500000000, A.D. 2026-Nov-14 00:00:00.0000, 7.477185007593369E+07, 2.641389552069592E+08, 2.718024195992251E+07,
2461365.500000000, A.D. 2026-Nov-21 00:00:00.0000, 6.084382447123959E+07, 2.691538219762127E+08, 2.755271726254946E+07,
2461372.500000000, A.D. 2026-Nov-28 00:00:00.0000, 4.677722117938361E+07, 2.735562178899310E+08, 2.786249243167847E+07,
2461379.500000000, A.D. 2026-Dec-05 00:00:00.0000, 3.260586642928718E+07, 2.773467971080029E+08, 2.810994904954265E+07,
2461386.500000000, A.D. 2026-Dec-12 00:00:00.0000, 1.836279884071354E+07, 2.805285769632053E+08, 2.829569831466253E+07,
2461393.500000000, A.D. 2026-Dec-19 00:00:00.0000, 4.080075549604695E+06, 2.831067806963276E+08, 2.842056340689591E+07,
2461400.500000000, A.D. 2026-Dec-26 00:00:00.0000, -1.021139453957747E+07, 2.850886650539879E+08, 2.848556063007610E+07,
2461407.500000000, A.D. 2027-Jan-02 00:00:00.0000, -2.448198961245747E+07, 2.864833373544179E+08, 2.849187977693285E+07,
2461414.500000000, A.D. 2027-Jan-09 00:00:00.0000, -3.870348612725808E+07, 2.873015665435268E+08, 2.844086415437683E+07,
2461421.500000000, A.D. 2027-Jan-16 00:00:00.0000, -5.284914331011958E+07, 2.875555923451863E+08, 2.833399066799122E+07,
2461428.500000000, A.D. 2027-Jan-23 00:00:00.0000, -6.689376249338390E+07, 2.872589360753614E+08, 2.817285030766356E+07,
2461435.500000000, A.D. 2027-Jan-30 00:00:00.0000, -8.081372309477398E+07, 2.864262161449339E+08, 2.795912930526367E+07,
2461442.500000000, A.D. 2027-Feb-06 00:00:00.0000, -9.458699707746775E+07, 2.850729711072298E+08, 2.769459118572754E+07,
2461449.500000000, A.D. 2027-Feb-13 00:00:00.0000, -1.081931447794544E+08, 2.832154934417583E+08, 2.738106002850363E+07,
2461456.500000000, A.D. 2027-Feb-20 00:00:00.0000, -1.216132969581432E+08, 2.808706747434869E+08, 2.702040521303174E+07,
2461463.500000000, A.D. 2027-Feb-27 00:00:00.0000, -1.348301241005631E+08, 2.780558600775663E+08, 2.661452733032948E+07,
2461470.500000000, A.D. 2027-Mar-06 00:00:00.0000, -1.478277923493886E+08, 2.747887139779137E+08, 2.616534517502375E+07,
2461477.500000000, A.D. 2027-Mar-13 00:00:00.0000, -1.605919098694131E+08, 2.710871003662217E+08, 2.567478413362144E+07,
2461484.500000000, A.D. 2027-Mar-20 00:00:00.0000, -1.731094668127990E+08, 2.669689754828950E+08, 2.514476597664659E+07,
2461491.500000000, A.D. 2027-Mar-27 00:00:00.0000, -1.853687705091538E+08, 2.624522929613211E+08, 2.457719994173251E+07,
2461498.500000000, A.D. 2027-Apr-03 00:00:00.0000, -1.973593772962525E+08, 2.575549204968683E+08, 2.397397501981108E+07,
2461505.500000000, A.D. 2027-Apr-10 00:00:00.0000, -2.090720223362992E+08, 2.522945674997639E+08, 2.333695336397313E+07,
2461512.500000000, A.D. 2027-Apr-17 00:00:00.0000, -2.204985485953627E+08, 2.466887229913936E+08, 2.266796473377861E+07,
2461519.500000000, A.D. 2027-Apr-24 00:00:00.0000, -2.316318359118350E+08, 2.407546028988461E+08, 2.196880187477495E+07,
2461526.500000000, A.D. 2027-May-01 00:00:00.0000, -2.424657306797858E+08, 2.345091059650143E+08, 2.124121671907805E+07,
2461533.500000000, A.D. 2027-May-08 00:00:00.0000, -2.529949765034685E+08, 2.279687782082942E+08, 2.048691735226510E+07,
2461540.500000000, A.D. 2027-May-15 00:00:00.0000, -2.632151478418855E+08, 2.211497860873930E+08, 1.970756587701647E+07,
2461547.500000000, A.D. 2027-May-22 00:00:00.0000, -2.731225886035323E+08, 2.140678950157743E+08, 1.890477702444021E+07,
2461554.500000000, A.D. 2027-May-29 00:00:00.0000, -2.827143526130782E+08, 2.067384510298336E+08, 1.808011700943495E+07,
2461561.500000000, A.D. 2027-Jun-05 00:00:00.0000, -2.919881452519014E+08, 1.991763680515846E+08, 1.723510273472212E+07,
2461568.500000000, A.D. 2027-Jun-12 00:00:00.0000, -3.009422684003904E+08, 1.913961205442285E+08, 1.637120149868585E+07,
2461575.500000000, A.D. 2027-Jun-19 00:00:00.0000, -3.095755690651895E+08, 1.834117400499402E+08, 1.548983110242626E+07,
2461582.500000000, A.D. 2027-Jun-26 00:00:00.0000, -3.178873914075472E+08, 1.752368148214687E+08, 1.459236025627644E+07,
2461589.500000000, A.D. 2027-Jul-03 00:00:00.0000, -3.258775319954593E+08, 1.668844920782271E+08, 1.368010922718052E+07,
2461596.500000000, A.D. 2027-Jul-10 00:00:00.0000, -3.335461981661713E+08, 1.583674824675649E+08, 1.275435068238712E+07,
2461603.500000000, A.D. 2027-Jul-17 00:00:00.0000, -3.408939693618085E+08, 1.496980663113681E+08, 1.181631068599758E+07,
2461610.500000000, A.D. 2027-Jul-24 00:00:00.0000, -3.479217611628389E+08, 1.408881012379926E+08, 1.086716979647437E+07,
2461617.500000000, A.D. 2027-Jul-31 00:00:00.0000, -3.546307914764116E+08, 1.319490311382423E+08, 9.908064218342505E+06,
2461624.500000000, A.D. 2027-Aug-07 00:00:00.0000, -3.610225489408155E+08, 1.228918973371403E+08, 8.940087096028604E+06,
2461631.500000000, A.D. 2027-Aug-14 00:00:00.0000, -3.670987657050428E+08, 1.137273515024012E+08, 7.964290118791319E+06,
2461638.500000000, A.D. 2027-Aug-21 00:00:00.0000, -3.728613938220259E+08, 1.044656667332318E+08, 6.981685086618721E+06,
2461645.500000000, A.D. 2027-Aug-28 00:00:00.0000, -3.783125816741582E+08, 9.511674786813036E+07, 5.993245205314770E+06,
2461652.500000000, A.D. 2027-Sep-04 00:00:00.0000, -3.834546514604678E+08, 8.569014336680347E+07, 4.999906410773959E+06,
2461659.500000000, A.D. 2027-Sep-11 00:00:00.0000, -3.882900790003487E+08, 7.619505797615482E+07, 4.002568785367519E+06,
2461666.500000000, A.D. 2027-Sep-18 00:00:00.0000, -3.928214755906000E+08, 6.664036542286754E+07, 3.002097991837941E+06,
2461673.500000000, A.D. 2027-Sep-25 00:00:00.0000, -3.970515715641899E+08, 5.703462096655846E+07, 1.999326689666100E+06,
2461680.500000000, A.D. 2027-Oct-02 00:00:00.0000, -4.009832013596413E+08, 4.738607376957900E+07, 9.950559227808528E+05,
2461687.500000000, A.D. 2027-Oct-09 00:00:00.0000, -4.046192899675178E+08, 3.770267902198505E+07, -9.943529191736132E+03,
2461694.500000000, A.D. 2027-Oct-16 00:00:00.0000, -4.079628405840378E+08, 2.799210972097426E+07, -1.014929850653302E+06,
2461701.500000000, A.D. 2027-Oct-23 00:00:00.0000, -4.110169231101401E+08, 1.826176806185073E+07, -2.019188968210365E+06,
2461708.500000000, A.D. 2027-Oct-30 00:00:00.0000, -4.137846630253639E+08, 8.518797020739490E+06, -3.022033394060961E+06,
2461715.500000000, A.D. 2027-Nov-06 00:00:00.0000, -4.162692317106622E+08, -1.229906766935607E+06, -4.022800937264164E+06,
2461722.500000000, A.D. 2027-Nov-13 00:00:00.0000, -4.184738401246842E+08, -1.097768092720457E+07, -5.020853271648061E+06,
2461729.500000000, A.D. 2027-Nov-20 00:00:00.0000, -4.204017328586292E+08, -2.071808826544752E+07, -6.015574805847522E+06,
2461736.500000000, A.D. 2027-Nov-27 00:00:00.0000, -4.220561808814949E+08, -3.044490772307557E+07, -7.006371761452414E+06,
2461743.500000000, A.D. 2027-Dec-04 00:00:00.0000, -4.234404749318665E+08, -4.015212446362491E+07, -7.992671198486831E+06,
2461750.500000000, A.D. 2027-Dec-11 00:00:00.0000, -4.245579200474460E+08, -4.983392005522108E+07, -8.973920016120698E+06,
2461757.500000000, A.D. 2027-Dec-18 00:00:00.0000, -4.254118309046786E+08, -5.948466308761147E+07, -9.949583981032789E+06,
2461764.500000000, A.D. 2027-Dec-25 00:00:00.0000, -4.260055277674079E+08, -6.909890022181723E+07, -1.091914679668437E+07,
2461771.500000000, A.D. 2028-Jan-01 00:00:00.0000, -4.263423329572412E+08, -7.867134765208001E+07, -1.188210921501296E+07,
$$EOE